OBJECT_NAME,OBJECT_ID,EPOCH,MEAN_MOTION,ECCENTRICITY,INCLINATION,RA_OF_ASC_NODE,ARG_OF_PERICENTER,MEAN_ANOMALY,EPHEMERIS_TYPE,CLASSIFICATION_TYPE,NORAD_CAT_ID,ELEMENT_SET_NO,REV_AT_EPOCH,BSTAR,MEAN_MOTION_DOT,MEAN_MOTION_DDOT
COSMOS 2251 DEB,1993-036BAD,2024-01-03T13:00:16.350624,14.25032842,.0102137,74.0055,313.1360,267.1305,91.8149,0,U,36430,999,74200,.51693E-3,.1252E-4,0
COSMOS 2251 DEB,1993-036BAL,2024-01-15T10:49:30.524736,14.53260793,.0026167,73.9470,296.0925,316.1131,43.7951,0,U,36437,999,75711,.25242E-2,.10509E-3,0
COSMOS 2251 DEB,1993-036BAN,2024-01-19T13:03:50.102496,13.44323096,.0439632,73.9689,60.0540,168.2878,192.8870,0,U,36439,999,71179,.1161E-2,.1188E-4,0
COSMOS 2251 DEB,1993-036BAR,2024-01-18T13:45:41.307264,14.59007290,.0034114,73.9900,339.1056,271.3472,88.3784,0,U,36442,999,75624,.38318E-2,.18159E-3,0
COSMOS 2251 DEB,1993-036BAX,2024-01-16T14:28:32.217888,14.58029512,.00332,74.0821,114.6179,219.9507,139.9215,0,U,36448,999,73945,.57444E-2,.26687E-3,0
COSMOS 2251 DEB,1993-036BBA,2024-01-09T01:33:23.603328,14.12864722,.0198164,73.9561,152.6506,127.0693,234.8751,0,U,36451,999,74359,.16556E-2,.3689E-4,0
COSMOS 2251 DEB,1993-036BBC,2024-01-20T10:27:23.706720,14.43378356,.0077485,73.9311,17.6337,73.0053,77.2186,0,U,36453,999,74445,.14307E-2,.4983E-4,0
COSMOS 2251 DEB,1993-036BBV,2024-01-18T04:31:31.952928,14.61357143,.0054871,73.8631,198.6179,164.4466,195.8402,0,U,36470,999,55816,.31047E-2,.15685E-3,0
COSMOS 2251 DEB,1993-036BCN,2023-12-25T09:25:25.103424,14.25090294,.0097017,74.0228,8.5765,229.4105,129.8571,0,U,36528,999,54173,.98719E-3,.2406E-4,0
COSMOS 2251 DEB,1993-036BCR,2024-01-16T09:53:56.578560,14.04595973,.022624,74.1072,167.7728,3.1699,357.0807,0,U,36531,999,72266,.44928E-2,.9011E-4,0
COSMOS 2251 DEB,1993-036BDL,2024-01-13T08:11:59.466336,14.23051679,.0086065,74.0470,13.8760,234.8661,124.4399,0,U,36550,999,74631,.10716E-2,.2484E-4,0
COSMOS 2251 DEB,1993-036BDM,2024-01-19T19:46:15.559680,14.73994664,.007885,73.8943,327.7302,70.9650,290.0042,0,U,36551,999,56630,.20671E-2,.14277E-3,0
COSMOS 2251 DEB,1993-036BEC,2023-12-30T13:50:25.379232,14.46970564,.0026711,74.0317,82.8088,326.0902,33.8548,0,U,36614,999,55249,.11086E-2,.4022E-4,0
COSMOS 2251 DEB,1993-036BEQ,2024-01-05T08:06:05.455296,15.16839942,.0105845,74.0186,245.6139,101.2373,260.0741,0,U,36626,999,76955,.59404E-3,.13489E-3,0
COSMOS 2251 DEB,1993-036BEU,2024-01-03T14:13:25.658976,14.50914733,.0040227,73.9778,94.8702,21.6364,338.6485,0,U,36630,999,77050,.20042E-2,.7977E-4,0
COSMOS 2251 DEB,1993-036BEW,2024-01-02T19:10:51.513312,14.36961928,.0036826,74.0018,167.4885,85.0707,275.4649,0,U,36632,999,54994,.82633E-3,.2441E-4,0
COSMOS 2251 DEB,1993-036BFE,2023-12-30T19:14:01.963104,14.86747591,.0124083,74.0320,157.5722,66.4567,294.9590,0,U,37084,999,75828,.40103E-3,.4072E-4,0
COSMOS 2251 DEB,1993-036BFF,2024-01-19T04:34:04.727136,14.86649205,.0073932,73.9761,207.9408,207.4146,152.3126,0,U,37085,999,75662,.18956E-2,.17701E-3,0
