0 COSMOS 2251 DEB
1 36430U 93036BAD 24003.54185591  .00001252  00000-0  51693-3 0  9991
2 36430  74.0055 313.1360 0102137 267.1305  91.8149 14.25032842742000
0 COSMOS 2251 DEB
1 36437U 93036BAL 24015.45104774  .00010509  00000-0  25242-2 0  9990
2 36437  73.9470 296.0925 0026167 316.1131  43.7951 14.53260793757116
0 COSMOS 2251 DEB
1 36439U 93036BAN 24019.54432989  .00001188  00000-0  11610-2 0  9995
2 36439  73.9689  60.0540 0439632 168.2878 192.8870 13.44323096711796
0 COSMOS 2251 DEB
1 36442U 93036BAR 24018.57339476  .00018159  00000-0  38318-2 0  9998
2 36442  73.9900 339.1056 0034114 271.3472  88.3784 14.59007290756244
0 COSMOS 2251 DEB
1 36448U 93036BAX 24016.60315067  .00026687  00000-0  57444-2 0  9992
2 36448  74.0821 114.6179 0033200 219.9507 139.9215 14.58029512553548
0 COSMOS 2251 DEB
1 36451U 93036BBA 24009.06485652  .00003689  00000-0  16556-2 0  9992
2 36451  73.9561 152.6506 0198164 127.0693 234.8751 14.12864722743599
0 COSMOS 2251 DEB
1 36453U 93036BBC 24020.43569105  .00004983  00000-0  14307-2 0  9994
2 36453  73.9311  17.6337 0077485  73.0053  77.2186 14.43378356744452
0 COSMOS 2251 DEB
1 36470U 93036BBV 24018.18856427  .00015685  00000-0  31047-2 0  9999
2 36470  73.8631 198.6179 0054871 164.4466 195.8402 14.61357143558166
0 COSMOS 2251 DEB
1 36528U 93036BCN 23359.39265166  .00002406  00000-0  98719-3 0  9994
2 36528  74.0228   8.5765 0097017 229.4105 129.8571 14.25090294541736
0 COSMOS 2251 DEB
1 36531U 93036BCR 24016.41246040  .00009011  00000-0  44928-2 0  9993
2 36531  74.1072 167.7728 0226240   3.1699 357.0807 14.04595973722663
0 COSMOS 2251 DEB
1 36550U 93036BDL 24013.34166049  .00002484  00000-0  10716-2 0  9998
2 36550  74.0470  13.8760 0086065 234.8661 124.4399 14.23051679746314
0 COSMOS 2251 DEB
1 36551U 93036BDM 24019.82379120  .00014277  00000-0  20671-2 0  9998
2 36551  73.8943 327.7302 0078850  70.9650 290.0042 14.73994664566305
0 COSMOS 2251 DEB
1 36614U 93036BEC 23364.57668263  .00004022  00000-0  11086-2 0  9998
2 36614  74.0317  82.8088 0026711 326.0902  33.8548 14.46970564552499
0 COSMOS 2251 DEB
1 36626U 93036BEQ 24005.33756314  .00013489  00000-0  59404-3 0  9997
2 36626  74.0186 245.6139 0105845 101.2373 260.0741 15.16839942769551
0 COSMOS 2251 DEB
1 36630U 93036BEU 24003.59265809  .00007977  00000-0  20042-2 0  9992
2 36630  73.9778  94.8702 0040227  21.6364 338.6485 14.50914733770501
0 COSMOS 2251 DEB
1 36632U 93036BEW 24002.79920733  .00002441  00000-0  82633-3 0  9995
2 36632  74.0018 167.4885 0036826  85.0707 275.4649 14.36961928549940
0 COSMOS 2251 DEB
1 37084U 93036BFE 23364.80141161  .00004072  00000-0  40103-3 0  9997
2 37084  74.0320 157.5722 0124083  66.4567 294.9590 14.86747591758281
0 COSMOS 2251 DEB
1 37085U 93036BFF 24019.19033249  .00017701  00000-0  18956-2 0  9998
2 37085  73.9761 207.9408 0073932 207.4146 152.3126 14.86649205566884
